VESSELSAT 1             
1 37840U 11058C   24156.53297900  .00000430  00000+0  90088-4 0  9995
2 37840  19.9608 218.7490 0013708 353.6857   6.3374 14.11162561652895
ORBCOMM FM109           
1 40086U 14040A   24156.26826855  .00001498  00000+0  36931-3 0  9993
2 40086  47.0048 359.2493 0001603   3.3982 356.6914 14.56702870525931
ORBCOMM FM107           
1 40087U 14040B   24156.57668455  .00001496  00000+0  36885-3 0  9994
2 40087  47.0067 358.7641 0001456 321.4436  38.6345 14.56714459526051
ORBCOMM FM106           
1 40088U 14040C   24156.45832617  .00001480  00000+0  29277-3 0  9995
2 40088  47.0597 210.6071 0016769 114.1192 246.1453 14.67149173527966
ORBCOMM FM111           
1 40089U 14040D   24156.57557980  .00003811  00000+0  49706-3 0  9995
2 40089  47.0033 108.0845 0032727 190.0593 169.9650 14.81967055534132
